TDRS 3                  
1 19548U 88091B   23189.78290605 -.00000309  00000+0  00000+0 0  9994
2 19548  13.4270 348.3885 0033665 335.9902 194.9583  1.00276032114599
HST                     
1 20580U 90037B   23190.50393878  .00003328  00000+0  17125-3 0  9996
2 20580  28.4691 119.4914 0002363 259.7240 265.2977 15.13427511625112
TDRS 5                  
1 21639U 91054B   23190.07072111  .00000073  00000+0  00000+0 0  9992
2 21639  14.2025   1.6744 0025278   1.9935 140.8364  1.00272510116934
TDRS 6                  
1 22314U 93003B   23189.85513697 -.00000306  00000+0  00000+0 0  9992
2 22314  14.1506   4.9522 0011980 137.6605  45.8494  1.00277313111607
TDRS 7                  
1 23613U 95035B   23189.88782707 -.00000211  00000+0  00000+0 0  9990
2 23613  13.8245 355.6875 0028919  66.0564 269.2009  1.00268718102379
ISS (ZARYA)             
1 25544U 98067A   23190.57783146  .00010473  00000+0  19367-3 0  9999
2 25544  51.6406 217.5536 0000239  93.5169  53.6825 15.49635129405261
LANDSAT 7               
1 25682U 99020A   23190.56457003  .00000409  00000+0  94134-4 0  9995
2 25682  97.9276 227.9277 0001389  80.4084  74.1311 14.60144858289047
TERRA                   
1 25994U 99068A   23190.48916725  .00000454  00000+0  10574-3 0  9990
2 25994  98.0936 258.3231 0002041  44.2685  70.9788 14.59284599253034
TDRS 8                  
1 26388U 00034A   23190.02546670 -.00000245  00000+0  00000+0 0  9999
2 26388  10.9786  39.8398 0021588 352.2599 353.1987  1.00271753 84407
TIMED                   
1 26998U 01055B   23190.13835941  .00001057  00000+0  11393-3 0  9996
2 26998  74.0703 228.7029 0002145 315.7139  44.3871 14.89828427170703
TDRS 9                  
1 27389U 02011A   23189.40699752 -.00000001  00000+0  00000+0 0  9998
2 27389   9.8557  56.9764 0007052  68.2495 159.7040  0.98981982 79635
AQUA                    
1 27424U 02022A   23190.51237639  .00000869  00000+0  19855-3 0  9999
2 27424  98.2877 134.8512 0002150  87.8939 337.7590 14.58153039126617
TDRS 10                 
1 27566U 02055A   23189.75858706  .00000079  00000+0  00000+0 0  9991
2 27566   8.9138  47.6884 0007420 356.7745 343.9464  1.00273712 75451
SORCE                   
1 27651U 03004A   23190.46833732  .00001830  00000+0  18973-3 0  9991
2 27651  39.9930 213.5450 0020657 316.6329  43.2835 14.92129485110862
AURA                    
1 28376U 04026A   23189.80609637  .00000956  00000+0  22018-3 0  9995
2 28376  98.2107 133.1827 0001907  79.5610 280.5803 14.57561256  9530
SWIFT                   
1 28485U 04047A   23189.44341831  .00006643  00000+0  35652-3 0  9995
2 28485  20.5564 112.6516 0009498 168.1665 191.8994 15.11171571 21987
THEMIS A                
1 30580U 07004A   23189.56393571 -.00000137  00000+0  11626-1 0  9997
2 30580  11.2508 299.4462 8324989 250.8079  30.7278  0.87833772 56525
THEMIS D                
1 30797U 07004D   23189.62719424 -.00000133  00000+0  00000+0 0  9991
2 30797   7.6652 287.3400 8281066 266.2356  37.4236  0.87834137 56040
THEMIS E                
1 30798U 07004E   23189.56902366 -.00000149  00000+0  00000+0 0  9991
2 30798   8.8002 306.4080 8284641 248.9120  37.2562  0.87831831 56462
AIM                     
1 31304U 07015A   23189.83602111  .00018427  00000+0  62278-3 0  9998
2 31304  97.8705 131.8846 0005787 105.2741 254.9138 15.30693534889991
FGRST (GLAST)           
1 33053U 08029A   23189.98310117  .00003014  00000+0  14436-3 0  9994
2 33053  25.5839  48.1094 0011461 347.6694  12.3560 15.14176173832529
WISE                    
1 36119U 09071A   23189.67613917  .00014388  00000+0  33102-3 0  9995
2 36119  97.1932 222.2799 0002156  54.7062 305.4388 15.42742042754855
TDRS 11                 
1 39070U 13004A   23190.12340906  .00000074  00000+0  00000+0 0  9996
2 39070   2.7043 358.9018 0006873  66.1362  91.7646  1.00270251 38214
TDRS 12                 
1 39504U 14004A   23189.99952472 -.00000275  00000+0  00000+0 0  9993
2 39504   3.6098 355.1622 0006263 151.5985  98.8248  1.00267460 34679
GPM-CORE                
1 39574U 14009C   23190.13105191  .00022678  00000+0  32348-3 0  9995
2 39574  64.9940 311.7611 0010246 254.9647 105.0366 15.56235812531785
MMS 1                   
1 40482U 15011A   23184.97924769 -.00001355  00000+0  00000+0 0  9990
2 40482  29.4967  60.5449 9138241  99.8459 359.7981  0.28527192 14381
MMS 2                   
1 40483U 15011B   23184.98265046 -.00001358  00000+0  00000+0 0  9991
2 40483  29.4893  60.5290 9140000  99.8228   0.1643  0.28502955 14364
MMS 3                   
1 40484U 15011C   23184.98440972 -.00001356  00000+0  00000+0 0  9993
2 40484  29.4852  60.5456 9139137  99.8417   0.3320  0.28511157 14361
MMS 4                   
1 40485U 15011D   23184.98620370 -.00001359  00000+0  00000+0 0  9999
2 40485  29.4858  60.5211 9140354  99.8424   0.4975  0.28495309 14365
TDRS 13                 
1 42915U 17047A   23189.71867340 -.00000104  00000+0  00000+0 0  9993
2 42915   3.9764 338.2340 0019167 119.5367  75.9210  1.00271066 21607
JPSS-1                  
1 43013U 17073A   23190.46625452  .00000067  00000+0  52348-4 0  9996
2 43013  98.7126 128.5914 0001586  75.8569 284.2783 14.19543846292132
